{"type": "FeatureCollection", "features": [ {"type": "Feature", "properties": {"norad_id": 30013, "name": "FENGYUN 1C DEB", "group": "fengyun-1c-debris", "lat": -48.22399387906689, "lon": 18.024547207097502, "alt_km": 942.6700028924852, "timestamp": "2025-12-13T16:48:32.983519+00:00", "meta": {"OBJECT_NAME": "FENGYUN 1C DEB", "OBJECT_ID": "1999-025MN", "EPOCH": "2025-12-13T00:01:10.026336", "MEAN_MOTION": 13.87825439, "ECCENTRICITY": 0.01282072, "INCLINATION": 99.5803, "RA_OF_ASC_NODE": 6.4097, "ARG_OF_PERICENTER": 43.3259, "MEAN_ANOMALY": 15.7649, "EPHEMERIS_TYPE": 0, "CLASSIFICATION_TYPE": "U", "NORAD_CAT_ID": 30013, "ELEMENT_SET_NO": 999, "REV_AT_EPOCH": 95685, "BSTAR": 0.00034351255, "MEAN_MOTION_DOT": 3.89e-06, "MEAN_MOTION_DDOT": 0}, "tle": {"line1": "1 30013U 99025MN  25347.00081049  .00000389  00000+0  34351-3 0  9993", "line2": "2 30013  99.5803   6.4097 0128207  43.3259  15.7649 13.87825439956850"}}, "geometry": {"type": "Point", "coordinates": [18.024547207097502, -48.22399387906689]}}, {"type": "Feature", "properties": {"norad_id": 30015, "name": "FENGYUN 1C DEB", "group": "fengyun-1c-debris", "lat": -44.57066378778144, "lon": -0.1430875216651284, "alt_km": 822.6724236216342, "timestamp": "2025-12-13T16:48:32.983529+00:00", "meta": {"OBJECT_NAME": "FENGYUN 1C DEB", "OBJECT_ID": "1999-025MQ", "EPOCH": "2025-12-12T18:20:57.449184", "MEAN_MOTION": 14.30799599, "ECCENTRICITY": 0.00385644, "INCLINATION": 99.2289, "RA_OF_ASC_NODE": 349.6475, "ARG_OF_PERICENTER": 124.8785, "MEAN_ANOMALY": 52.3475, "EPHEMERIS_TYPE": 0, "CLASSIFICATION_TYPE": "U", "NORAD_CAT_ID": 30015, "ELEMENT_SET_NO": 999, "REV_AT_EPOCH": 98173, "BSTAR": 0.00089246444, "MEAN_MOTION_DOT": 2.309e-05, "MEAN_MOTION_DDOT": 0}, "tle": {"line1": "1 30015U 99025MQ  25346.76455381  .00002309  00000+0  89246-3 0  9998", "line2": "2 30015  99.2289 349.6475 0038564 124.8785  52.3475 14.30799599981739"}}, "geometry": {"type": "Point", "coordinates": [-0.1430875216651284, -44.57066378778144]}}, {"type": "Feature", "properties": {"norad_id": 30016, "name": "FENGYUN 1C DEB", "group": "fengyun-1c-debris", "lat": -65.53744628886292, "lon": 159.60325315611507, "alt_km": 669.8161124064927, "timestamp": "2025-12-13T16:48:32.983540+00:00", "meta": {"OBJECT_NAME": "FENGYUN 1C DEB", "OBJECT_ID": "1999-025MR", "EPOCH": "2025-12-12T19:23:01.555296", "MEAN_MOTION": 14.78513348, "ECCENTRICITY": 0.004686, "INCLINATION": 98.9061, "RA_OF_ASC_NODE": 358.779, "ARG_OF_PERICENTER": 40.9177, "MEAN_ANOMALY": 137.5061, "EPHEMERIS_TYPE": 0, "CLASSIFICATION_TYPE": "U", "NORAD_CAT_ID": 30016, "ELEMENT_SET_NO": 999, "REV_AT_EPOCH": 99454, "BSTAR": 0.0027885595, "MEAN_MOTION_DOT": 0.00020736, "MEAN_MOTION_DDOT": 0}, "tle": {"line1": "1 30016U 99025MR  25346.80765689  .00020736  00000+0  27886-2 0  9994", "line2": "2 30016  98.9061 358.7790 0046860  40.9177 137.5061 14.78513348994544"}}, "geometry": {"type": "Point", "coordinates": [159.60325315611507, -65.53744628886292]}}, {"type": "Feature", "properties": {"norad_id": 30017, "name": "FENGYUN 1C DEB", "group": "fengyun-1c-debris", "lat": -31.223825330366527, "lon": 37.70621459477581, "alt_km": 835.5673800729692, "timestamp": "2025-12-13T16:48:32.983550+00:00", "meta": {"OBJECT_NAME": "FENGYUN 1C DEB", "OBJECT_ID": "1999-025MS", "EPOCH": "2025-12-12T13:01:13.907712", "MEAN_MOTION": 14.61196311, "ECCENTRICITY": 0.02174638, "INCLINATION": 98.7546, "RA_OF_ASC_NODE": 31.1209, "ARG_OF_PERICENTER": 175.6859, "MEAN_ANOMALY": 184.6283, "EPHEMERIS_TYPE": 0, "CLASSIFICATION_TYPE": "U", "NORAD_CAT_ID": 30017, "ELEMENT_SET_NO": 999, "REV_AT_EPOCH": 441, "BSTAR": 0.00028955827, "MEAN_MOTION_DOT": 1.93e-05, "MEAN_MOTION_DDOT": 0}, "tle": {"line1": "1 30017U 99025MS  25346.54252208  .00001930  00000+0  28956-3 0  9999", "line2": "2 30017  98.7546  31.1209 0217463 175.6859 184.6283 14.61196311  4416"}}, "geometry": {"type": "Point", "coordinates": [37.70621459477581, -31.223825330366527]}}, {"type": "Feature", "properties": {"norad_id": 30018, "name": "FENGYUN 1C DEB", "group": "fengyun-1c-debris", "lat": 40.67507248215552, "lon": 62.80349119084772, "alt_km": 719.2862677149642, "timestamp": "2025-12-13T16:48:32.983559+00:00", "meta": {"OBJECT_NAME": "FENGYUN 1C DEB", "OBJECT_ID": "1999-025MT", "EPOCH": "2025-12-12T20:00:21.548736", "MEAN_MOTION": 14.73182468, "ECCENTRICITY": 0.01166913, "INCLINATION": 98.7561, "RA_OF_ASC_NODE": 69.4804, "ARG_OF_PERICENTER": 195.2152, "MEAN_ANOMALY": 292.4407, "EPHEMERIS_TYPE": 0, "CLASSIFICATION_TYPE": "U", "NORAD_CAT_ID": 30018, "ELEMENT_SET_NO": 999, "REV_AT_EPOCH": 438, "BSTAR": 0.0011897735, "MEAN_MOTION_DOT": 8.496e-05, "MEAN_MOTION_DDOT": 0}, "tle": {"line1": "1 30018U 99025MT  25346.83358274  .00008496  00000+0  11898-2 0  9992", "line2": "2 30018  98.7561  69.4804 0116691 195.2152 292.4407 14.73182468  4387"}}, "geometry": {"type": "Point", "coordinates": [62.80349119084772, 40.67507248215552]}}, {"type": "Feature", "properties": {"norad_id": 30020, "name": "FENGYUN 1C DEB", "group": "fengyun-1c-debris", "lat": -77.10612460360093, "lon": 128.61385602258918, "alt_km": 1015.7876415307137, "timestamp": "2025-12-13T16:48:32.983570+00:00", "meta": {"OBJECT_NAME": "FENGYUN 1C DEB", "OBJECT_ID": "1999-025MV", "EPOCH": "2025-12-12T14:30:32.523840", "MEAN_MOTION": 14.04465696, "ECCENTRICITY": 0.01839871, "INCLINATION": 98.8474, "RA_OF_ASC_NODE": 350.4196, "ARG_OF_PERICENTER": 70.8811, "MEAN_ANOMALY": 52.5734, "EPHEMERIS_TYPE": 0, "CLASSIFICATION_TYPE": "U", "NORAD_CAT_ID": 30020, "ELEMENT_SET_NO": 999, "REV_AT_EPOCH": 96656, "BSTAR": 0.00079180447, "MEAN_MOTION_DOT": 1.427e-05, "MEAN_MOTION_DDOT": 0}, "tle": {"line1": "1 30020U 99025MV  25346.60454310  .00001427  00000+0  79180-3 0  9994", "line2": "2 30020  98.8474 350.4196 0183987  70.8811  52.5734 14.04465696966569"}}, "geometry": {"type": "Point", "coordinates": [128.61385602258918, -77.10612460360093]}}, {"type": "Feature", "properties": {"norad_id": 30021, "name": "FENGYUN 1C DEB", "group": "fengyun-1c-debris", "lat": 63.54863486354835, "lon": -39.015787419508506, "alt_km": 910.8818352753106, "timestamp": "2025-12-13T16:48:32.983580+00:00", "meta": {"OBJECT_NAME": "FENGYUN 1C DEB", "OBJECT_ID": "1999-025MW", "EPOCH": "2025-12-12T21:58:18.609024", "MEAN_MOTION": 14.04892145, "ECCENTRICITY": 0.0071963, "INCLINATION": 98.8356, "RA_OF_ASC_NODE": 338.438, "ARG_OF_PERICENTER": 286.5768, "MEAN_ANOMALY": 130.4459, "EPHEMERIS_TYPE": 0, "CLASSIFICATION_TYPE": "U", "NORAD_CAT_ID": 30021, "ELEMENT_SET_NO": 999, "REV_AT_EPOCH": 96934, "BSTAR": 0.00030237514, "MEAN_MOTION_DOT": 4.53e-06, "MEAN_MOTION_DDOT": 0}, "tle": {"line1": "1 30021U 99025MW  25346.91549316  .00000453  00000+0  30238-3 0  9999", "line2": "2 30021  98.8356 338.4380 0071963 286.5768 130.4459 14.04892145969349"}}, "geometry": {"type": "Point", "coordinates": [-39.015787419508506, 63.54863486354835]}}, {"type": "Feature", "properties": {"norad_id": 30022, "name": "FENGYUN 1C DEB", "group": "fengyun-1c-debris", "lat": 30.054015513919172, "lon": -169.46246704469146, "alt_km": 839.8575002314456, "timestamp": "2025-12-13T16:48:32.983590+00:00", "meta": {"OBJECT_NAME": "FENGYUN 1C DEB", "OBJECT_ID": "1999-025MX", "EPOCH": "2025-12-12T20:29:28.876416", "MEAN_MOTION": 14.23132648, "ECCENTRICITY": 0.00665587, "INCLINATION": 99.0721, "RA_OF_ASC_NODE": 194.97, "ARG_OF_PERICENTER": 268.8067, "MEAN_ANOMALY": 106.3157, "EPHEMERIS_TYPE": 0, "CLASSIFICATION_TYPE": "U", "NORAD_CAT_ID": 30022, "ELEMENT_SET_NO": 999, "REV_AT_EPOCH": 98194, "BSTAR": 0.00011851328, "MEAN_MOTION_DOT": 2.26e-06, "MEAN_MOTION_DDOT": 0}, "tle": {"line1": "1 30022U 99025MX  25346.85380644  .00000226  00000+0  11851-3 0  9998", "line2": "2 30022  99.0721 194.9700 0066558 268.8067 106.3157 14.23132648981942"}}, "geometry": {"type": "Point", "coordinates": [-169.46246704469146, 30.054015513919172]}}, {"type": "Feature", "properties": {"norad_id": 30023, "name": "FENGYUN 1C DEB", "group": "fengyun-1c-debris", "lat": -75.89162817852106, "lon": -138.0484286185054, "alt_km": 886.4290223054841, "timestamp": "2025-12-13T16:48:32.983600+00:00", "meta": {"OBJECT_NAME": "FENGYUN 1C DEB", "OBJECT_ID": "1999-025MY", "EPOCH": "2025-12-13T00:53:48.038784", "MEAN_MOTION": 14.1186344, "ECCENTRICITY": 0.00471558, "INCLINATION": 99.2938, "RA_OF_ASC_NODE": 180.6096, "ARG_OF_PERICENTER": 62.7622, "MEAN_ANOMALY": 90.176, "EPHEMERIS_TYPE": 0, "CLASSIFICATION_TYPE": "U", "NORAD_CAT_ID": 30023, "ELEMENT_SET_NO": 999, "REV_AT_EPOCH": 97200, "BSTAR": 0.00054781253, "MEAN_MOTION_DOT": 9.63e-06, "MEAN_MOTION_DDOT": 0}, "tle": {"line1": "1 30023U 99025MY  25347.03736156  .00000963  00000+0  54781-3 0  9990", "line2": "2 30023  99.2938 180.6096 0047155  62.7622  90.1760 14.11863440972000"}}, "geometry": {"type": "Point", "coordinates": [-138.0484286185054, -75.89162817852106]}}, {"type": "Feature", "properties": {"norad_id": 30028, "name": "FENGYUN 1C DEB", "group": "fengyun-1c-debris", "lat": -9.692839900382559, "lon": -18.696587923352624, "alt_km": 781.1990889765511, "timestamp": "2025-12-13T16:48:32.983610+00:00", "meta": {"OBJECT_NAME": "FENGYUN 1C DEB", "OBJECT_ID": "1999-025ND", "EPOCH": "2025-12-12T22:57:44.997984", "MEAN_MOTION": 14.55491454, "ECCENTRICITY": 0.01742215, "INCLINATION": 98.1457, "RA_OF_ASC_NODE": 339.1759, "ARG_OF_PERICENTER": 227.6707, "MEAN_ANOMALY": 186.9584, "EPHEMERIS_TYPE": 0, "CLASSIFICATION_TYPE": "U", "NORAD_CAT_ID": 30028, "ELEMENT_SET_NO": 999, "REV_AT_EPOCH": 99725, "BSTAR": 0.00059299924, "MEAN_MOTION_DOT": 3.113e-05, "MEAN_MOTION_DDOT": 0}, "tle": {"line1": "1 30028U 99025ND  25346.95677081  .00003113  00000+0  59300-3 0  9998", "line2": "2 30028  98.1457 339.1759 0174221 227.6707 186.9584 14.55491454997259"}}, "geometry": {"type": "Point", "coordinates": [-18.696587923352624, -9.692839900382559]}}]}